SAOCOM 1A               
1 43641U 18076A   26085.84068426  .00000379  00000+0  54208-4 0  9990
2 43641  97.8907 273.7712 0001487  84.5804 275.5579 14.82158822403905
H-2A R/B                
1 43682U 18084L   26085.54290737  .00019154  00000+0  44617-3 0  9996
2 43682  98.8711 306.5404 0023967 326.7333  33.2402 15.42046506408374
SAOCOM 1B               
1 46265U 20059A   26085.80440711  .00000798  00000+0  10683-3 0  9999
2 46265  97.8906 272.8332 0001506  87.6554 272.4831 14.82154351301283
CSS (TIANHE)            
1 48274U 21035A   26085.47667690  .00022078  00000+0  25348-3 0  9995
2 48274  41.4668 105.9518 0004375  27.8564 332.2509 15.61516360280239
COSMOS 2550             
1 48865U 21056A   26085.86254282 -.00000191  00000+0  28271-7 0  9991
2 48865  67.1433 348.9365 0008320 269.2591  90.7610 15.33832534266095
CZ-2C R/B               
1 52794U 22058K   26085.80010259  .00036120  00000+0  50425-3 0  9990
2 52794  50.1867 230.1901 0041479 274.0304  85.5926 15.55455273212795
CZ-2C R/B               
1 54039U 22132E   26085.46979240  .00046034  00000+0  49499-3 0  9997
2 54039  97.2963  89.3160 0018219  36.9565 323.2945 15.63410774192997
GSLV R/B                
1 54149U 22138AN  26085.23353480  .00002455  00000+0  21043-3 0  9996
2 54149  87.3864 160.8245 0024097  92.1088 268.2903 14.96880005186407
XRISM                   
1 57800U 23137A   26085.61106912  .00005744  00000+0  32341-3 0  9998
2 57800  31.0013 174.1979 0007938 209.6422 150.3768 15.11688606140355
ACS3                    
1 59588U 24077B   26085.77410331  .00017622  00000+0  13906-1 0  9999
2 59588  97.1977  23.0463 0071606  37.1168 323.4917 13.90365672 96579
SZ-21 MODULE            
1 66515U 25246C   26085.42964706  .00035932  00000+0  29374-3 0  9990
2 66515  41.4744 100.2120 0001204 208.6321 151.4455 15.69816747 20702
